IRIDIUM 159             
1 43578U 18061K   23305.51701156  .00000542  00000+0  18652-3 0  9997
2 43578  86.3924  97.3787 0001989  88.8473 271.2950 14.34218304275973
IRIDIUM 180             
1 43922U 19002A   23305.51651870  .00000459  00000+0  15695-3 0  9994
2 43922  86.4014  34.2370 0002364  91.4711 268.6756 14.34220251251587
IRIDIUM 176             
1 43923U 19002B   23305.54235908  .00001761  00000+0  27543-3 0  9990
2 43923  86.6142  34.2592 0002368  92.8003 267.3485 14.72241037258209
IRIDIUM 168             
1 43924U 19002C   23305.78924251  .00000478  00000+0  16372-3 0  9995
2 43924  86.4015  34.1733 0002212  90.6801 269.4648 14.34222041251606
IRIDIUM 173             
1 43925U 19002D   23305.63701522  .00000478  00000+0  16351-3 0  9991
2 43925  86.4012  34.1650 0002177  91.8067 268.3378 14.34223159251574
IRIDIUM 169             
1 43926U 19002E   23305.63458339  .00000628  00000+0  19874-3 0  9997
2 43926  86.4225  65.7763 0001120 240.9825 119.1261 14.38606712252414
IRIDIUM 172             
1 43927U 19002F   23305.49114490  .00000475  00000+0  16249-3 0  9992
2 43927  86.4012  34.2304 0002220  93.9500 266.1950 14.34216155251555
IRIDIUM 175             
1 43928U 19002G   23305.60423816  .00001713  00000+0  26778-3 0  9995
2 43928  86.1556  20.3060 0002223  93.9255 266.2215 14.72230499258204
